CZ-2C R/B               
1 54039U 22132E   26003.54308125  .00048617  00000+0  68234-3 0  9991
2 54039  97.2935   5.1811 0018876 340.1642  19.8877 15.56380349180221
GSLV R/B                
1 54149U 22138AN  26003.52538104  .00005033  00000+0  44108-3 0  9998
2 54149  87.3820 188.1770 0023056  33.7056 326.5635 14.96271452174187
XRISM                   
1 57800U 23137A   26003.64153061  .00010409  00000+0  60797-3 0  9998
2 57800  31.0035 344.1141 0007663 107.8843 252.2631 15.10633405127947
ACS3                    
1 59588U 24077B   26003.62727203  .00038705  00000+0  32487-1 0  9992
2 59588  97.2517 319.3420 0068866 283.6219  75.7281 13.86719858 85172
SZ-21 MODULE            
1 66515U 25246C   26003.64603062  .00038373  00000+0  39899-3 0  9994
2 66515  41.4753 242.2924 0002142  30.6119 329.4846 15.63843354  7873
