CCSDS_OMM_VERS = 2.0
CREATION_DATE  = 
ORIGINATOR     = 

OBJECT_NAME    = CZ-2C R/B
OBJECT_ID      = 2022-132E
CENTER_NAME    = EARTH
REF_FRAME      = TEME
TIME_SYSTEM    = UTC
MEAN_ELEMENT_THEORY = SGP/SGP4

EPOCH          = 2026-01-03T13:02:02.220000
MEAN_MOTION    = 15.56380349
ECCENTRICITY   = .00188766
INCLINATION    = 97.2935
RA_OF_ASC_NODE = 5.1811
ARG_OF_PERICENTER = 340.1642
MEAN_ANOMALY   = 19.8877

EPHEMERIS_TYPE = 0
CLASSIFICATION_TYPE = U
NORAD_CAT_ID   = 54039
ELEMENT_SET_NO = 999
REV_AT_EPOCH   = 18022
BSTAR          = .6823384E-3
MEAN_MOTION_DOT = .48617E-3
MEAN_MOTION_DDOT = 0

CCSDS_OMM_VERS = 2.0
CREATION_DATE  = 
ORIGINATOR     = 

OBJECT_NAME    = GSLV R/B
OBJECT_ID      = 2022-138AN
CENTER_NAME    = EARTH
REF_FRAME      = TEME
TIME_SYSTEM    = UTC
MEAN_ELEMENT_THEORY = SGP/SGP4

EPOCH          = 2026-01-03T12:36:32.921856
MEAN_MOTION    = 14.96271452
ECCENTRICITY   = .00230563
INCLINATION    = 87.3820
RA_OF_ASC_NODE = 188.1770
ARG_OF_PERICENTER = 33.7056
MEAN_ANOMALY   = 326.5635

EPHEMERIS_TYPE = 0
CLASSIFICATION_TYPE = U
NORAD_CAT_ID   = 54149
ELEMENT_SET_NO = 999
REV_AT_EPOCH   = 17418
BSTAR          = .44108184E-3
MEAN_MOTION_DOT = .5033E-4
MEAN_MOTION_DDOT = 0

CCSDS_OMM_VERS = 2.0
CREATION_DATE  = 
ORIGINATOR     = 

OBJECT_NAME    = XRISM
OBJECT_ID      = 2023-137A
CENTER_NAME    = EARTH
REF_FRAME      = TEME
TIME_SYSTEM    = UTC
MEAN_ELEMENT_THEORY = SGP/SGP4

EPOCH          = 2026-01-03T15:23:48.244704
MEAN_MOTION    = 15.10633405
ECCENTRICITY   = .00076633
INCLINATION    = 31.0035
RA_OF_ASC_NODE = 344.1141
ARG_OF_PERICENTER = 107.8843
MEAN_ANOMALY   = 252.2631

EPHEMERIS_TYPE = 0
CLASSIFICATION_TYPE = U
NORAD_CAT_ID   = 57800
ELEMENT_SET_NO = 999
REV_AT_EPOCH   = 12794
BSTAR          = .60796601E-3
MEAN_MOTION_DOT = .10409E-3
MEAN_MOTION_DDOT = 0

CCSDS_OMM_VERS = 2.0
CREATION_DATE  = 
ORIGINATOR     = 

OBJECT_NAME    = ACS3
OBJECT_ID      = 2024-077B
CENTER_NAME    = EARTH
REF_FRAME      = TEME
TIME_SYSTEM    = UTC
MEAN_ELEMENT_THEORY = SGP/SGP4

EPOCH          = 2026-01-03T15:03:16.303392
MEAN_MOTION    = 13.86719858
ECCENTRICITY   = .00688665
INCLINATION    = 97.2517
RA_OF_ASC_NODE = 319.3420
ARG_OF_PERICENTER = 283.6219
MEAN_ANOMALY   = 75.7281

EPHEMERIS_TYPE = 0
CLASSIFICATION_TYPE = U
NORAD_CAT_ID   = 59588
ELEMENT_SET_NO = 999
REV_AT_EPOCH   = 8517
BSTAR          = .32487211E-1
MEAN_MOTION_DOT = .38705E-3
MEAN_MOTION_DDOT = 0

CCSDS_OMM_VERS = 2.0
CREATION_DATE  = 
ORIGINATOR     = 

OBJECT_NAME    = SZ-21 MODULE
OBJECT_ID      = 2025-246C
CENTER_NAME    = EARTH
REF_FRAME      = TEME
TIME_SYSTEM    = UTC
MEAN_ELEMENT_THEORY = SGP/SGP4

EPOCH          = 2026-01-03T15:30:17.045568
MEAN_MOTION    = 15.63843354
ECCENTRICITY   = .00021427
INCLINATION    = 41.4753
RA_OF_ASC_NODE = 242.2924
ARG_OF_PERICENTER = 30.6119
MEAN_ANOMALY   = 329.4846

EPHEMERIS_TYPE = 0
CLASSIFICATION_TYPE = U
NORAD_CAT_ID   = 66515
ELEMENT_SET_NO = 999
REV_AT_EPOCH   = 787
BSTAR          = .39898937E-3
MEAN_MOTION_DOT = .38373E-3
MEAN_MOTION_DDOT = 0

